NORAD_CAT_ID,OBJECT_NAME,OBJECT_TYPE,EPOCH,MEAN_MOTION,ECCENTRICITY,INCLINATION,RA_OF_ASC_NODE,ARG_OF_PERICENTER,MEAN_ANOMALY,BSTAR,MEAN_MOTION_DOT,MEAN_MOTION_DDOT,TLE_LINE0,TLE_LINE1,TLE_LINE2,SEMIMAJOR_AXIS,PERIOD,APOGEE,PERIGEE,DECAYED
51794.0,STARLINK-3573,PAYLOAD,2024-01-08 02:59:31,15.08847596,0.0001436,53.219,302.5968,80.707,279.4085,4.7099e-05,4.62e-06,0.0,0 STARLINK-3573,1 51794U 22017AC  24008.12466951  .00000462  00000-0  47099-4 0  9991,2 51794  53.2190 302.5968 0001436  80.7070 279.4085 15.08847596104426,6917.857,95.437,540.716,538.729,0.0
51794.0,STARLINK-3573,PAYLOAD,2024-01-08 04:34:54,15.0885236,0.0001536,53.2188,302.298,97.0144,263.1023,7.7121e-05,9.4e-06,0.0,0 STARLINK-3573,1 51794U 22017AC  24008.19090489  .00000940  00000-0  77121-4 0  9997,2 51794  53.2188 302.2980 0001536  97.0144 263.1023 15.08852360104436,6917.843,95.437,540.77,538.645,0.0
51794.0,STARLINK-3573,PAYLOAD,2024-01-09 02:50:18,15.08841117,0.0001439,53.2187,298.1376,80.5587,279.5568,0.00011612,1.561e-05,0.0,0 STARLINK-3573,1 51794U 22017AC  24009.11827322  .00001561  00000-0  11612-3 0  9996,2 51794  53.2187 298.1376 0001439  80.5587 279.5568 15.08841117104575,6917.877,95.437,540.737,538.746,0.0
51794.0,STARLINK-3573,PAYLOAD,2024-01-09 04:25:41,15.0884493,0.0001409,53.2188,297.8355,91.1486,268.9668,0.00015632,2.201e-05,0.0,0 STARLINK-3573,1 51794U 22017AC  24009.18450936  .00002201  00000-0  15632-3 0  9994,2 51794  53.2188 297.8355 0001409  91.1486 268.9668 15.08844930104582,6917.865,95.437,540.705,538.756,0.0
51794.0,STARLINK-3573,PAYLOAD,2024-01-10 04:16:28,15.08848267,0.0001582,53.2201,293.372,101.4727,258.6443,4.0016e-05,3.49e-06,0.0,0 STARLINK-3573,1 51794U 22017AC  24010.17810921  .00000349  00000-0  40016-4 0  9995,2 51794  53.2201 293.3720 0001582 101.4727 258.6443 15.08848267104731,6917.855,95.437,540.815,538.626,0.0
51794.0,STARLINK-3573,PAYLOAD,2024-01-11 04:07:15,15.08850414,0.0001532,53.2197,288.911,98.9813,261.1352,0.00016524,2.344e-05,0.0,0 STARLINK-3573,1 51794U 22017AC  24011.17170750  .00002344  00000-0  16524-3 0  9998,2 51794  53.2197 288.9110 0001532  98.9813 261.1352 15.08850414104880,6917.849,95.437,540.773,538.654,0.0
51794.0,STARLINK-3573,PAYLOAD,2024-01-11 18:25:44,15.08841792,0.0001875,53.2184,286.2353,109.0231,251.0965,3.1807e-05,2.18e-06,0.0,0 STARLINK-3573,1 51794U 22017AC  24011.76787287  .00000218  00000-0  31807-4 0  9992,2 51794  53.2184 286.2353 0001875 109.0231 251.0965 15.08841792104971,6917.875,95.437,541.037,538.443,0.0
51794.0,STARLINK-3573,PAYLOAD,2024-01-11 21:36:30,15.08844849,0.0001981,53.2169,285.6423,122.7697,237.3486,4.8627e-05,4.86e-06,0.0,0 STARLINK-3573,1 51794U 22017AC  24011.90034982  .00000486  00000-0  48627-4 0  9990,2 51794  53.2169 285.6423 0001981 122.7697 237.3486 15.08844849104994,6917.866,95.437,541.101,538.36,0.0
51794.0,STARLINK-3573,PAYLOAD,2024-01-12 03:58:02,15.08846712,0.0001503,53.2173,284.4551,104.8438,255.272,0.00016865,2.398e-05,0.0,0 STARLINK-3573,1 51794U 22017AC  24012.16531077  .00002398  00000-0  16865-3 0  9998,2 51794  53.2173 284.4551 0001503 104.8438 255.2720 15.08846712105039,6917.86,95.437,540.765,538.685,0.0
51794.0,STARLINK-3573,PAYLOAD,2024-01-12 21:27:17,15.08837093,0.0001604,53.2167,281.1818,111.5011,248.6152,-8.4936e-05,-1.639e-05,0.0,0 STARLINK-3573,1 51794U 22017AC  24012.89395675 -.00001639  00000-0 -84936-4 0  9994,2 51794  53.2167 281.1818 0001604 111.5011 248.6152 15.08837093105145,6917.889,95.438,540.864,538.645,0.0
51794.0,STARLINK-3573,PAYLOAD,2024-01-13 03:48:50,15.08840434,0.0001529,53.2177,279.9939,113.1252,246.9902,-1.0421e-05,-4.54e-06,0.0,0 STARLINK-3573,1 51794U 22017AC  24013.15891460 -.00000454  00000-0 -10421-4 0  9999,2 51794  53.2177 279.9939 0001529 113.1252 246.9902 15.08840434105187,6917.879,95.438,540.802,538.686,0.0
51794.0,STARLINK-3573,PAYLOAD,2024-01-14 00:28:51,15.08843836,0.0001569,53.2168,276.1289,106.2135,253.903,0.00014276,1.985e-05,0.0,0 STARLINK-3573,1 51794U 22017AC  24014.02003687  .00001985  00000-0  14276-3 0  9991,2 51794  53.2168 276.1289 0001569 106.2135 253.9030 15.08843836105315,6917.869,95.437,540.819,538.648,0.0
51794.0,STARLINK-3573,PAYLOAD,2024-01-14 22:44:15,15.08846821,0.0001532,53.2171,271.9648,105.4888,254.6274,0.00015566,2.191e-05,0.0,0 STARLINK-3573,1 51794U 22017AC  24014.94739615  .00002191  00000-0  15566-3 0  9992,2 51794  53.2171 271.9648 0001532 105.4888 254.6274 15.08846821105457,6917.86,95.437,540.784,538.665,0.0
51794.0,STARLINK-3573,PAYLOAD,2024-01-15 03:30:23,15.08863321,0.0001493,53.2169,271.072,111.4451,248.6701,-0.00018629,-3.254e-05,0.0,0 STARLINK-3573,1 51794U 22017AC  24015.14610520 -.00003254  00000-0 -18629-3 0  9994,2 51794  53.2169 271.0720 0001493 111.4451 248.6701 15.08863321105480,6917.809,95.436,540.707,538.641,0.0
51794.0,STARLINK-3573,PAYLOAD,2024-01-15 20:59:38,15.08840953,0.0002209,53.2169,267.7987,131.5195,228.5986,-3.6769e-05,-8.73e-06,0.0,0 STARLINK-3573,1 51794U 22017AC  24015.87475511 -.00000873  00000-0 -36769-4 0  9993,2 51794  53.2169 267.7987 0002209 131.5195 228.5986 15.08840953105591,6917.877,95.437,541.271,538.214,0.0
51794.0,STARLINK-3573,PAYLOAD,2024-01-16 01:45:48,15.08843877,0.0001866,53.2176,266.9032,117.3285,242.7897,1.4835e-05,-5.2e-07,0.0,0 STARLINK-3573,1 51794U 22017AC  24016.07347636 -.00000052  00000-0  14835-4 0  9990,2 51794  53.2176 266.9032 0001866 117.3285 242.7897 15.08843877105622,6917.869,95.437,541.024,538.443,0.0
51794.0,STARLINK-3573,PAYLOAD,2024-01-16 22:25:49,15.08838116,0.0001621,53.2175,263.043,108.4506,251.6663,-4.1407e-05,-9.47e-06,0.0,0 STARLINK-3573,1 51794U 22017AC  24016.93460081 -.00000947  00000-0 -41407-4 0  9994,2 51794  53.2175 263.0430 0001621 108.4506 251.6663 15.08838116105751,6917.886,95.438,540.873,538.63,0.0
51794.0,STARLINK-3573,PAYLOAD,2024-01-17 00:01:12,15.08840781,0.0001474,53.2169,262.7501,98.9925,261.1234,-1.3375e-05,-5.01e-06,0.0,0 STARLINK-3573,1 51794U 22017AC  24017.00084023 -.00000501  00000-0 -13375-4 0  9990,2 51794  53.2169 262.7501 0001474  98.9925 261.1234 15.08840781105765,6917.878,95.438,540.763,538.723,0.0
51794.0,STARLINK-3573,PAYLOAD,2024-01-17 22:16:36,15.08842157,0.0001378,53.2162,258.5866,85.1124,275.0026,0.00011139,1.485e-05,0.0,0 STARLINK-3573,1 51794U 22017AC  24017.92820527  .00001485  00000-0  11139-3 0  9993,2 51794  53.2162 258.5866 0001378  85.1124 275.0026 15.08842157105905,6917.874,95.437,540.692,538.786,0.0
51794.0,STARLINK-3573,PAYLOAD,2024-01-18 01:27:22,15.08846816,0.0001377,53.2158,257.9909,100.9683,259.1464,0.00017945,2.57e-05,0.0,0 STARLINK-3573,1 51794U 22017AC  24018.06068191  .00002570  00000-0  17945-3 0  9997,2 51794  53.2158 257.9909 0001377 100.9683 259.1464 15.08846816105923,6917.86,95.437,540.677,538.772,0.0
51794.0,STARLINK-3573,PAYLOAD,2024-01-18 18:56:37,15.088403,0.000146,53.2166,254.7166,107.5021,252.6131,6.1507e-05,6.91e-06,0.0,0 STARLINK-3573,1 51794U 22017AC  24018.78932630  .00000691  00000-0  61507-4 0  9990,2 51794  53.2166 254.7166 0001460 107.5021 252.6131 15.08840300106038,6917.879,95.438,540.754,538.734,0.0
51794.0,STARLINK-3573,PAYLOAD,2024-01-18 22:07:23,15.08845727,0.0001651,53.2167,254.1202,126.8236,233.2907,0.00011996,1.622e-05,0.0,0 STARLINK-3573,1 51794U 22017AC  24018.92180259  .00001622  00000-0  11996-3 0  9999,2 51794  53.2167 254.1202 0001651 126.8236 233.2907 15.08845727106054,6917.863,95.437,540.87,538.586,0.0
51794.0,STARLINK-3573,PAYLOAD,2024-01-19 01:18:10,15.08841658,0.0001307,53.2146,253.5344,86.2264,273.8878,7.5801e-05,9.19e-06,0.0,0 STARLINK-3573,1 51794U 22017AC  24019.05428626  .00000919  00000-0  75801-4 0  9991,2 51794  53.2146 253.5344 0001307  86.2264 273.8878 15.08841658106077,6917.875,95.437,540.644,538.836,0.0
51794.0,STARLINK-3573,PAYLOAD,2024-01-19 18:47:25,15.08830218,0.0001456,53.216,250.2573,95.6187,264.4971,-5.5557e-05,-1.172e-05,0.0,0 STARLINK-3573,1 51794U 22017AC  24019.78293717 -.00001172  00000-0 -55557-4 0  9992,2 51794  53.2160 250.2573 0001456  95.6187 264.4971 15.08830218106186,6917.91,95.438,540.783,538.768,0.0
51794.0,STARLINK-3573,PAYLOAD,2024-01-19 21:58:12,15.08832772,0.0001533,53.2162,249.6624,83.8176,276.2991,-8.8829e-06,-4.29e-06,0.0,0 STARLINK-3573,1 51794U 22017AC  24019.91541697 -.00000429  00000-0 -88829-5 0  9993,2 51794  53.2162 249.6624 0001533  83.8176 276.2991 15.08832772106203,6917.902,95.438,540.828,538.707,0.0
51794.0,STARLINK-3573,PAYLOAD,2024-01-20 01:08:58,15.08833189,0.0001543,53.2163,249.0674,91.4872,268.6297,3.0709e-06,-2.39e-06,0.0,0 STARLINK-3573,1 51794U 22017AC  24020.04789728 -.00000239  00000-0  30709-5 0  9990,2 51794  53.2163 249.0674 0001543  91.4872 268.6297 15.08833189106221,6917.901,95.438,540.834,538.699,0.0
51794.0,STARLINK-3573,PAYLOAD,2024-01-20 18:38:12,15.08843668,0.000153,53.2164,245.7977,88.2849,271.8319,0.00032472,4.884e-05,0.0,0 STARLINK-3573,1 51794U 22017AC  24020.77653277  .00004884  00000-0  32472-3 0  9995,2 51794  53.2164 245.7977 0001530  88.2849 271.8319 15.08843668106331,6917.869,95.437,540.793,538.676,0.0
51794.0,STARLINK-3573,PAYLOAD,2024-01-20 20:13:35,15.08854721,0.000143,53.2155,245.5003,84.3922,275.7233,5.9203e-05,6.55e-06,0.0,0 STARLINK-3573,1 51794U 22017AC  24020.84276744  .00000655  00000-0  59203-4 0  9997,2 51794  53.2155 245.5003 0001430  84.3922 275.7233 15.08854721106348,6917.835,95.437,540.69,538.711,0.0
51794.0,STARLINK-3573,PAYLOAD,2024-01-21 20:04:22,15.08848779,0.0001425,53.2157,241.0425,77.3104,282.8048,0.00013432,1.851e-05,0.0,0 STARLINK-3573,1 51794U 22017AC  24021.83636901  .00001851  00000-0  13432-3 0  9994,2 51794  53.2157 241.0425 0001425  77.3104 282.8048 15.08848779106492,6917.854,95.437,540.704,538.733,0.0
51794.0,STARLINK-3573,PAYLOAD,2024-01-21 21:39:45,15.08849201,0.0001442,53.2159,240.745,82.7617,277.3539,0.00013324,1.834e-05,0.0,0 STARLINK-3573,1 51794U 22017AC  24021.90260787  .00001834  00000-0  13324-3 0  9998,2 51794  53.2159 240.7450 0001442  82.7617 277.3539 15.08849201106503,6917.852,95.437,540.715,538.72,0.0
